CAS-2T & KS-1Q          
1 41847U 16066G   21123.11449379  .00000073  00000-0  21477-4 0  9995
2 41847  98.6052 182.0422 0365194 355.9191   3.9038 14.38182009235364
NAYIF-1 (EO-88)         
1 42017U 17008BX  21123.18066759  .00002679  00000-0  10087-3 0  9994
2 42017  97.3182 191.5906 0004241 267.1490  92.9265 15.27965532234341
ZHUHAI-1 02 (CAS-4B)    
1 42759U 17034B   21123.32821655  .00000426  00000-0  38954-4 0  9998
2 42759  43.0176  69.1568 0010039 247.7075 247.0494 15.10178917214322
ZHUHAI-1 01 (CAS-4A)    
1 42761U 17034D   21123.59255109  .00000406  00000-0  37729-4 0  9992
2 42761  43.0182  66.7907 0010419 250.5121 278.4373 15.10260899214367
MAX VALIER SAT          
1 42778U 17036P   21123.44552827  .00001637  00000-0  71409-4 0  9993
2 42778  97.2595 173.5242 0011122 343.7857  16.3022 15.23483736214435
RADFXSAT (FOX-1B)       
1 43017U 17073E   21123.22442945  .00001038  00000-0  84154-4 0  9992
2 43017  97.7099  29.0004 0256728  87.9425 275.1162 14.79466590186435
FOX-1D (AO-92)          
1 43137U 18004AC  21123.45724322  .00001787  00000-0  74200-4 0  9999
2 43137  97.4084 197.9478 0009208  20.6711 339.4897 15.25120659183802
DIWATA-2B               
1 43678U 18084H   21123.44504575  .00000468  00000-0  52175-4 0  9994
2 43678  97.9168 248.5110 0009461 191.5569 168.5455 14.91741665136724
ES'HAIL 2               
1 43700U 18090A   21123.48810536  .00000129  00000-0  00000-0 0  9998
2 43700   0.0148 272.2191 0001216 137.3262  13.5879  1.00271125  8917
FOX-1CLIFF (AO-95)      
1 43770U 18099N   21123.48138735  .00000877  00000-0  84722-4 0  9995
2 43770  97.6673 194.6569 0013937 201.9053 158.1574 14.95284619131739
ITASAT 1                
1 43786U 18099AE  21123.47641698  .00000872  00000-0  83603-4 0  9990
2 43786  97.6691 195.2987 0014810 195.2162 164.8616 14.95582882131761
JY1SAT (JO-97)          
1 43803U 18099AX  21123.44755490  .00000130  00000-0  16756-4 0  9995
2 43803  97.6648 195.0280 0014709 195.9734 164.1025 14.95820090131769
UWE-4                   
1 43880U 18111E   21123.46136012  .00000138  00000-0  17096-4 0  9996
2 43880  97.6892  31.9569 0010870 254.1267 105.8757 14.96824905128352
PSAT2 (NO-104)          
1 44354U 19036R   21123.18752914  .00014264  00000-0  18891-3 0  9992
2 44354  28.5281  68.5868 0329362 145.6183 216.6192 15.12548278102106
BRICSAT2 (NO-103)       
1 44355U 19036S   21123.41433313  .00024779  00000-0  27862-3 0  9998
2 44355  28.5252  28.9974 0272152 210.1630 148.3040 15.27283678102538
JAISAT-1                
1 44419U 19038F   21123.35656586  .00001511  00000-0  87301-4 0  9997
2 44419  97.5848  88.2400 0022733 106.3840 253.9893 15.13644177100971
DUCHIFAT-3              
1 44854U 19089C   21123.04608834  .00000739  00000-0  65481-4 0  9991
2 44854  36.9671   9.1537 0006616 133.9516 226.1769 14.99453465 76287
RS-44 & BREEZE-KM R/B   
1 44909U 19096E   21123.51575659  .00000007  00000-0 -15814-4 0  9994
2 44909  82.5182 142.6739 0217059 197.8850 161.4528 12.79709767 63076
ORBITAL FACTORY 2 (OF-2)
1 45113U 19071C   21123.37188477  .00004777  00000-0  14712-3 0  9999
2 45113  51.6418 256.0466 0012337 129.7668 230.4403 15.35483404 70241
HUSKYSAT-1 (HO-107)     
1 45119U 19071J   21123.51453268  .00003874  00000-0  12125-3 0  9997
2 45119  51.6413 254.7458 0011766 126.7755 233.4309 15.35531811 70263
BY70-2                  
1 45857U 20042B   21123.59323061  .00001537  00000-0  22563-3 0  9992
2 45857  97.9841 199.8076 0010792   8.7655 351.3739 14.76910890 44924
SALSAT                  
1 46495U 20068K   21123.60253007  .00000003  00000-0  48013-5 0  9990
2 46495  97.6919  61.3724 0015219 219.5877 140.4238 15.03428108 32594
BY70-3                  
1 46839U 20079N   21123.55947568  .00003328  00000-0  10540-3 0  9995
2 46839  97.2417 198.3109 0007502  22.2168  92.1495 15.33408726 27321
RADFXSAT-2 (AO-109)     
1 47311U 21002C   21123.47699560  .00002005  00000-0  99436-4 0  9998
2 47311  60.6839  99.5420 0030269  22.9013 337.3415 15.21513435 16021
UVSQ-SAT                
1 47438U 21006AB  21123.41200092  .00001058  00000-0  63473-4 0  9993
2 47438  97.4909 185.4356 0011238 250.9911 109.0103 15.13043765 15241
DIY-1 (ARDUIQUBE)       
1 47963U 21022AH  21123.48053272  .00003196  00000-0  21635-3 0  9995
2 47963  97.5610  26.6096 0021343  97.1052 263.2603 15.07036096  5122
